PAKSAT-1R               
1 37779U 11042A   26181.80763398  .00000164  00000+0  00000+0 0  9992
2 37779   0.7227  84.4884 0003429 352.0059 171.0806  1.00273969 54617
SES-2                   
1 37809U 11049A   26181.78303735 -.00000185  00000+0  00000+0 0  9999
2 37809   0.0931  93.3450 0003108   4.9824  15.4110  1.00271363 54100
ARABSAT-5C              
1 37810U 11049B   26181.80434065  .00000134  00000+0  00000+0 0  9998
2 37810   0.0507  18.4734 0003363  99.4315 110.5056  1.00271274 54175
EUTELSAT 7 WEST A       
1 37816U 11051A   26181.72762281 -.00000050  00000+0  00000+0 0  9990
2 37816   0.0599   3.2218 0004743 107.0962  63.1053  1.00271532 54018
QUETZSAT 1              
1 37826U 11054A   26181.78503071 -.00000231  00000+0  00000+0 0  9991
2 37826   0.0109  10.1241 0002988  94.5518  19.7908  1.00271199 50016
INTELSAT 18 (IS-18)     
1 37834U 11056A   26181.76475060  .00000000  00000+0  00000+0 0  9999
2 37834   0.0231  22.8266 0002100  83.3379 267.9762  1.00269536 53947
EUTELSAT 16A            
1 37836U 11057A   26181.09064889  .00000115  00000+0  00000+0 0  9998
2 37836   0.0428  18.8852 0005573  80.2758 227.6347  1.00273509  7460
VIASAT-1                
1 37843U 11059A   26181.60304314  .00000000  00000+0  00000+0 0  9998
2 37843   0.0247  21.9876 0002638  78.2303 280.4466  1.00269274 47456
ASIASAT 7               
1 37933U 11069A   26181.82125780 -.00000323  00000+0  00000+0 0  9990
2 37933   0.0263 289.6094 0001644 144.3881 246.0566  1.00272939 44998
BEIDOU-2 IGSO-5         
1 37948U 11073A   26175.65702808 -.00000196  00000+0  00000+0 0  9995
2 37948  47.6633 271.4526 0114223 222.0346 107.5350  1.00272136 53204
LUCH-5A                 
1 37951U 11074B   26181.63402544 -.00000046  00000+0  00000+0 0  9993
2 37951   8.7862  73.6128 0002723  38.7683 201.5027  1.00272761 53184
NIGCOMSAT 1R            
1 38014U 11077A   26181.73750998  .00000156  00000+0  00000+0 0  9998
2 38014   0.0497 204.5303 0002774 154.4307 227.8210  1.00270980 53095
WGS F4 (USA 233)        
1 38070U 12003A   26181.82594358  .00000000  00000+0  00000+0 0  9994
2 38070   0.0233  29.7562 0001823  95.4653 179.4213  1.00266900 44284
SES-4                   
1 38087U 12007A   26181.79599250 -.00000158  00000+0  00000+0 0  9993
2 38087   0.0225  41.9713 0002429  55.7201  85.7192  1.00269561 52367
BEIDOU-2 G5             
1 38091U 12008A   26181.74071664  .00000063  00000+0  00000+0 0  9992
2 38091   3.6065  69.6198 0008419 275.7883 258.8500  1.00277198 52509
MUOS-1                  
1 38093U 12009A   26181.59755020 -.00000121  00000+0  00000+0 0  9999
2 38093   5.5028  47.1400 0057615   2.5910 344.0724  1.00272736 52573
INTELSAT 22 (IS-22)     
1 38098U 12011A   26181.81467110  .00000000  00000+0  00000+0 0  9997
2 38098   0.0477  66.4575 0001758  43.3994 174.4033  1.00271278  7326
APSTAR-7                
1 38107U 12013A   26181.81553778 -.00000091  00000+0  00000+0 0  9997
2 38107   0.0224  73.2279 0003294  33.2363 182.5195  1.00272170 51947
YAHSAT 1B               
1 38245U 12016A   26180.94142138  .00000138  00000+0  00000+0 0  9991
2 38245   0.0900  89.0120 0003604  35.6808 179.8291  1.00269200 45732
AEHF-2 (USA 235)        
1 38254U 12019A   26181.44065475 -.00000129  00000+0  00000+0 0  9999
2 38254   6.6799  57.3934 0002056  38.1413 325.0650  1.00273342  7128
JCSAT-13                
1 38331U 12023A   26181.82489781 -.00000346  00000+0  00000+0 0  9993
2 38331   0.0187   6.7201 0003001 103.5738 229.5593  1.00271405 51677
VINASAT-2               
1 38332U 12023B   26181.47003027 -.00000318  00000+0  00000+0 0  9999
2 38332   0.0138  14.9404 0002570  88.1195 116.5383  1.00271649 46794
NIMIQ 6                 
1 38342U 12026A   26181.56849331 -.00000163  00000+0  00000+0 0  9997
2 38342   0.0446 276.6925 0002950 183.9515 291.5417  1.00272949 50548
ZHONGXING-2A            
1 38352U 12028A   26181.83447591 -.00000283  00000+0  00000+0 0  9995
2 38352   1.4888  83.7246 0001911  26.2702 207.5476  1.00272182 51430
INTELSAT 19 (IS-19)     
1 38356U 12030A   26181.76197727 -.00000046  00000+0  00000+0 0  9994
2 38356   0.0120   7.2299 0003431 102.5357 249.3719  1.00271515 50588
ECHOSTAR 17             
1 38551U 12035A   26180.65449685 -.00000064  00000+0  00000+0 0  9996
2 38551   0.0189  24.4677 0002011  74.9260 306.8573  1.00271136 51182
METEOSAT-10 (MSG-3)     
1 38552U 12035B   26181.80044064  .00000001  00000+0  00000+0 0  9997
2 38552   4.7021  60.9556 0001675  13.8848 132.3208  1.00269307 50991
SES-5                   
1 38652U 12036A   26181.80139397  .00000044  00000+0  00000+0 0  9990
2 38652   0.0479 316.3488 0002286 143.2223 112.7779  1.00272258 44597
INTELSAT 20 (IS-20)     
1 38740U 12043A   26181.74262331  .00000000  00000+0  00000+0 0  9996
2 38740   0.0431  76.2361 0002191 109.1853  69.2208  1.00270865 50884
HYLAS 2                 
1 38741U 12043B   26181.50085400 -.00000249  00000+0  00000+0 0  9997
2 38741   2.4600  80.9169 0002832  36.5619 268.8206  1.00270955 50900
INTELSAT 21 (IS-21)     
1 38749U 12045A   26181.50371402 -.00000274  00000+0  00000+0 0  9995
2 38749   0.0336 277.3574 0002288 199.0500 285.4992  1.00281274 50654
ASTRA 2F                
1 38778U 12051A   26181.84072557  .00000160  00000+0  00000+0 0  9993
2 38778   0.0754 254.4918 0002226 275.4468  79.8200  1.00271594 41271
